NORAD_CAT_ID,OBJECT_NAME,OBJECT_TYPE,EPOCH,MEAN_MOTION,ECCENTRICITY,INCLINATION,RA_OF_ASC_NODE,ARG_OF_PERICENTER,MEAN_ANOMALY,BSTAR,MEAN_MOTION_DOT,MEAN_MOTION_DDOT,TLE_LINE0,TLE_LINE1,TLE_LINE2,SEMIMAJOR_AXIS,PERIOD,APOGEE,PERIGEE,DECAYED
53588.0,STARLINK-4691,PAYLOAD,2023-08-04 01:56:38,15.08832702,0.0001302,53.2165,182.8422,101.9684,258.1454,3.8532e-05,3.25e-06,0.0,0 STARLINK-4691,1 53588U 22104A   23216.08099760  .00000325  00000-0  38532-4 0  9996,2 53588  53.2165 182.8422 0001302 101.9684 258.1454 15.08832702 51714,6917.903,95.438,540.668,538.867,0.0
53588.0,STARLINK-4691,PAYLOAD,2023-08-05 03:22:48,15.0884156,0.0001269,53.216,178.0813,89.2686,270.8452,6.2396e-05,7.05e-06,0.0,0 STARLINK-4691,1 53588U 22104A   23217.14083429  .00000705  00000-0  62396-4 0  9996,2 53588  53.2160 178.0813 0001269  89.2686 270.8452 15.08841560 51870,6917.876,95.437,540.618,538.863,0.0
53588.0,STARLINK-4691,PAYLOAD,2023-08-05 06:33:33,15.08847994,0.0001256,53.216,177.4857,96.1097,264.0038,0.00011782,1.588e-05,0.0,0 STARLINK-4691,1 53588U 22104A   23217.27330840  .00001588  00000-0  11782-3 0  9994,2 53588  53.2160 177.4857 0001256  96.1097 264.0038 15.08847994 51894,6917.856,95.437,540.59,538.852,0.0
53588.0,STARLINK-4691,PAYLOAD,2023-08-06 14:21:17,15.08836248,0.0001331,53.2165,171.5385,86.3759,273.7385,2.2075e-05,6.3e-07,0.0,0 STARLINK-4691,1 53588U 22104A   23218.59811718  .00000063  00000-0  22075-4 0  9993,2 53588  53.2165 171.5385 0001331  86.3759 273.7385 15.08836248 52095,6917.892,95.438,540.678,538.836,0.0
53588.0,STARLINK-4691,PAYLOAD,2023-08-07 03:04:23,15.08833182,0.00013,53.2162,169.1587,100.056,260.0579,-9.5014e-05,-1.799e-05,0.0,0 STARLINK-4691,1 53588U 22104A   23219.12804434 -.00001799  00000-0 -95014-4 0  9992,2 53588  53.2162 169.1587 0001300 100.0560 260.0579 15.08833182 52176,6917.901,95.438,540.666,538.867,0.0
53588.0,STARLINK-4691,PAYLOAD,2023-08-07 14:12:04,15.08845237,0.000128,53.2165,167.0774,111.3554,248.7575,-0.00012691,-2.307e-05,0.0,0 STARLINK-4691,1 53588U 22104A   23219.59171787 -.00002307  00000-0 -12691-3 0  9996,2 53588  53.2165 167.0774 0001280 111.3554 248.7575 15.08845237 52240,6917.864,95.437,540.615,538.844,0.0
53588.0,STARLINK-4691,PAYLOAD,2023-08-08 02:55:08,15.08854077,0.0001183,53.2163,164.698,90.0433,270.0695,8.3057e-05,1.035e-05,0.0,0 STARLINK-4691,1 53588U 22104A   23220.12162630  .00001035  00000-0  83057-4 0  9994,2 53588  53.2163 164.6980 0001183  90.0433 270.0695 15.08854077 52323,6917.837,95.437,540.521,538.884,0.0
53588.0,STARLINK-4691,PAYLOAD,2023-08-09 05:56:42,15.08840577,0.0001293,53.2164,159.6435,86.236,273.878,0.00017171,2.446e-05,0.0,0 STARLINK-4691,1 53588U 22104A   23221.24771350  .00002446  00000-0  17171-3 0  9993,2 53588  53.2164 159.6435 0001293  86.2360 273.8780 15.08840577 52495,6917.879,95.438,540.638,538.849,0.0
53588.0,STARLINK-4691,PAYLOAD,2023-08-10 05:47:29,15.08842943,0.0001082,53.2153,155.1841,97.3193,262.7922,-6.4473e-05,-1.314e-05,0.0,0 STARLINK-4691,1 53588U 22104A   23222.24131584 -.00001314  00000-0 -64473-4 0  9996,2 53588  53.2153 155.1841 0001082  97.3193 262.7922 15.08842943 52649,6917.871,95.437,540.485,538.988,0.0
53588.0,STARLINK-4691,PAYLOAD,2023-08-11 04:02:52,15.08881894,7.97e-05,53.2201,151.0245,131.0775,229.0286,-0.00049097,-8.102e-05,0.0,0 STARLINK-4691,1 53588U 22104A   23223.16866827 -.00008102  00000-0 -49097-3 0  9999,2 53588  53.2201 151.0245 0000797 131.0775 229.0286 15.08881894 52782,6917.752,95.435,540.169,539.066,0.0
53588.0,STARLINK-4691,PAYLOAD,2023-08-11 11:59:50,15.08828194,0.000232,53.218,149.5341,75.3147,284.8102,1.7733e-05,-6e-08,0.0,0 STARLINK-4691,1 53588U 22104A   23223.49989125 -.00000006  00000-0  17733-4 0  9999,2 53588  53.2180 149.5341 0002320  75.3147 284.8102 15.08828194 52830,6917.916,95.438,541.386,538.177,0.0
53588.0,STARLINK-4691,PAYLOAD,2023-08-12 18:12:09,15.08840458,0.0001194,53.216,143.886,94.5031,265.6097,0.00016735,2.377e-05,0.0,0 STARLINK-4691,1 53588U 22104A   23224.75844612  .00002377  00000-0  16735-3 0  9992,2 53588  53.2160 143.8860 0001194  94.5031 265.6097 15.08840458 53023,6917.879,95.438,540.57,538.918,0.0
53588.0,STARLINK-4691,PAYLOAD,2023-08-13 03:44:28,15.08849716,0.0001285,53.2164,142.1021,84.6388,275.4751,0.0002671,3.967e-05,0.0,0 STARLINK-4691,1 53588U 22104A   23225.15588242  .00003967  00000-0  26710-3 0  9991,2 53588  53.2164 142.1021 0001285  84.6388 275.4751 15.08849716 53082,6917.851,95.437,540.605,538.827,0.0
53588.0,STARLINK-4691,PAYLOAD,2023-08-14 00:24:29,15.08842636,0.0001165,53.2138,138.2381,93.2177,266.8949,0.00014638,2.043e-05,0.0,0 STARLINK-4691,1 53588U 22104A   23226.01700618  .00002043  00000-0  14638-3 0  9990,2 53588  53.2138 138.2381 0001165  93.2177 266.8949 15.08842636 53219,6917.872,95.437,540.543,538.931,0.0
53588.0,STARLINK-4691,PAYLOAD,2023-08-15 17:44:30,15.08854203,0.0001481,53.2168,130.5035,87.2539,272.8622,-2.7991e-05,-7.34e-06,0.0,0 STARLINK-4691,1 53588U 22104A   23227.73924198 -.00000734  00000-0 -27991-4 0  9995,2 53588  53.2168 130.5035 0001481  87.2539 272.8622 15.08854203 53475,6917.837,95.437,540.727,538.677,0.0
53588.0,STARLINK-4691,PAYLOAD,2023-08-16 03:16:48,15.08859196,0.0001452,53.2165,128.7185,89.9121,270.2038,2.2287e-05,6.7e-07,0.0,0 STARLINK-4691,1 53588U 22104A   23228.13667416  .00000067  00000-0  22287-4 0  9997,2 53588  53.2165 128.7185 0001452  89.9121 270.2038 15.08859196 53537,6917.822,95.436,540.691,538.682,0.0
53588.0,STARLINK-4691,PAYLOAD,2023-08-17 01:32:13,15.08843242,0.0001495,53.2167,124.5545,93.3485,266.7678,4.2249e-05,3.85e-06,0.0,0 STARLINK-4691,1 53588U 22104A   23229.06404252  .00000385  00000-0  42249-4 0  9990,2 53588  53.2167 124.5545 0001495  93.3485 266.7678 15.08843242 53672,6917.87,95.437,540.77,538.701,0.0
53588.0,STARLINK-4691,PAYLOAD,2023-08-18 02:58:23,15.08846367,0.0001239,53.2165,119.7976,86.9361,273.1773,3.8838e-05,3.3e-06,0.0,0 STARLINK-4691,1 53588U 22104A   23230.12387961  .00000330  00000-0  38838-4 0  9995,2 53588  53.2165 119.7976 0001239  86.9361 273.1773 15.08846367 53838,6917.861,95.437,540.583,538.869,0.0
53588.0,STARLINK-4691,PAYLOAD,2023-08-18 17:16:52,15.08830569,0.0001328,53.2174,117.1244,99.8956,260.2186,3.3728e-05,2.49e-06,0.0,0 STARLINK-4691,1 53588U 22104A   23230.72005133  .00000249  00000-0  33728-4 0  9991,2 53588  53.2174 117.1244 0001328  99.8956 260.2186 15.08830569 53922,6917.909,95.438,540.693,538.856,0.0
53588.0,STARLINK-4691,PAYLOAD,2023-08-19 01:13:47,15.08841669,0.0001199,53.217,115.6362,99.6756,260.4371,5.9826e-05,6.64e-06,0.0,0 STARLINK-4691,1 53588U 22104A   23231.05124421  .00000664  00000-0  59826-4 0  9998,2 53588  53.2170 115.6362 0001199  99.6756 260.4371 15.08841669 53970,6917.875,95.437,540.57,538.911,0.0
53588.0,STARLINK-4691,PAYLOAD,2023-08-20 01:04:35,15.08833105,0.0001105,53.2158,111.1751,92.9101,267.2017,-4.3534e-05,-9.8e-06,0.0,0 STARLINK-4691,1 53588U 22104A   23232.04485192 -.00000980  00000-0 -43534-4 0  9995,2 53588  53.2158 111.1751 0001105  92.9101 267.2017 15.08833105 54122,6917.901,95.438,540.531,539.002,0.0
53588.0,STARLINK-4691,PAYLOAD,2023-08-20 23:19:58,15.0884693,0.0001238,53.2171,107.0115,81.8088,278.3044,0.00011835,1.597e-05,0.0,0 STARLINK-4691,1 53588U 22104A   23232.97220665  .00001597  00000-0  11835-3 0  9990,2 53588  53.2171 107.0115 0001238  81.8088 278.3044 15.08846930 54261,6917.859,95.437,540.581,538.868,0.0
53588.0,STARLINK-4691,PAYLOAD,2023-08-21 20:00:00,15.08841076,0.0001343,53.217,103.1462,80.2215,279.8929,6.2739e-05,7.11e-06,0.0,0 STARLINK-4691,1 53588U 22104A   23233.83333481  .00000711  00000-0  62739-4 0  9994,2 53588  53.2170 103.1462 0001343  80.2215 279.8929 15.08841076 54392,6917.877,95.437,540.671,538.813,0.0
53588.0,STARLINK-4691,PAYLOAD,2023-08-23 00:36:56,15.08845996,0.0001553,53.2175,97.7958,77.2096,282.9069,0.00011321,1.514e-05,0.0,0 STARLINK-4691,1 53588U 22104A   23235.02564979  .00001514  00000-0  11321-3 0  9997,2 53588  53.2175  97.7958 0001553  77.2096 282.9069 15.08845996 54576,6917.862,95.437,540.801,538.653,0.0
53588.0,STARLINK-4691,PAYLOAD,2023-08-24 16:21:34,15.08856538,0.0001209,53.2164,90.359,98.0528,262.0601,-0.00020738,-3.588e-05,0.0,0 STARLINK-4691,1 53588U 22104A   23236.68165214 -.00003588  00000-0 -20738-3 0  9996,2 53588  53.2164  90.3590 0001209  98.0528 262.0601 15.08856538 55996,6917.83,95.437,540.531,538.858,0.0
53588.0,STARLINK-4691,PAYLOAD,2023-08-25 00:18:30,15.08843737,0.0001437,53.2151,88.873,73.4202,286.6948,4.9193e-05,4.95e-06,0.0,0 STARLINK-4691,1 53588U 22104A   23237.01285199  .00000495  00000-0  49193-4 0  9998,2 53588  53.2151  88.8730 0001437  73.4202 286.6948 15.08843737 54878,6917.869,95.437,540.728,538.74,0.0
53588.0,STARLINK-4691,PAYLOAD,2023-08-25 19:23:08,15.08840907,0.0001156,53.2161,85.3043,83.8693,276.2431,3.2665e-05,2.32e-06,0.0,0 STARLINK-4691,1 53588U 22104A   23237.80773361  .00000232  00000-0  32665-4 0  9993,2 53588  53.2161  85.3043 0001156  83.8693 276.2431 15.08840907 56167,6917.878,95.437,540.542,538.943,0.0
53588.0,STARLINK-4691,PAYLOAD,2023-08-25 20:58:31,15.0884256,0.000119,53.2164,85.0069,87.8721,272.2408,4.8875e-05,4.9e-06,0.0,0 STARLINK-4691,1 53588U 22104A   23237.87397202  .00000490  00000-0  48875-4 0  9992,2 53588  53.2164  85.0069 0001190  87.8721 272.2408 15.08842560 56177,6917.873,95.437,540.561,538.914,0.0
53588.0,STARLINK-4691,PAYLOAD,2023-08-26 17:38:32,15.08847711,0.0001262,53.2167,81.141,99.7592,260.3543,-0.00016094,-2.849e-05,0.0,0 STARLINK-4691,1 53588U 22104A   23238.73509605 -.00002849  00000-0 -16094-3 0  9999,2 53588  53.2167  81.1410 0001262  99.7592 260.3543 15.08847711 55131,6917.857,95.437,540.595,538.849,0.0
53588.0,STARLINK-4691,PAYLOAD,2023-08-26 19:13:56,15.08785953,0.0001671,53.2171,80.8436,99.6732,260.4449,0.00073055,0.00011341,0.0,0 STARLINK-4691,1 53588U 22104A   23238.80134970  .00011341  00000-0  73055-3 0  9991,2 53588  53.2171  80.8436 0001671  99.6732 260.4449 15.08785953 56315,6918.046,95.441,541.067,538.755,0.0
